[{"OBJECT_NAME":"LEMUR-2-ANDIS","OBJECT_ID":"2017-042P","EPOCH":"2026-03-09T13:25:33.116448","MEAN_MOTION":15.30557934,"ECCENTRICITY":0.0009101,"INCLINATION":97.3659,"RA_OF_ASC_NODE":249.795,"ARG_OF_PERICENTER":4.3248,"MEAN_ANOMALY":355.807,"EPHEMERIS_TYPE":0,"CLASSIFICATION_TYPE":"U","NORAD_CAT_ID":42838,"ELEMENT_SET_NO":999,"REV_AT_EPOCH":47319,"BSTAR":0.00079875,"MEAN_MOTION_DOT":0.00023598,"MEAN_MOTION_DDOT":0},{"OBJECT_NAME":"STARLINK-36113","OBJECT_ID":"2025-288Z","EPOCH":"2026-03-09T05:52:53.214240","MEAN_MOTION":15.27560673,"ECCENTRICITY":0.00010413,"INCLINATION":42.9997,"RA_OF_ASC_NODE":25.588,"ARG_OF_PERICENTER":268.0745,"MEAN_ANOMALY":91.9988,"EPHEMERIS_TYPE":0,"CLASSIFICATION_TYPE":"U","NORAD_CAT_ID":66982,"ELEMENT_SET_NO":999,"REV_AT_EPOCH":1522,"BSTAR":0.0010332646,"MEAN_MOTION_DOT":0.00028263,"MEAN_MOTION_DDOT":0}]
